TIANMU-1 14             
1 58648U 23205D   26163.84687426  .00005949  00000+0  22835-3 0  9995
2 58648  97.3399 184.6854 0007413   1.8937 358.2328 15.26814988136847
TIANMU-1 19             
1 58660U 23208A   26163.84414590  .00008434  00000+0  27963-3 0  9991
2 58660  97.4498 280.1218 0004144 347.4642  12.6496 15.31511636136665
TIANMU-1 20             
1 58661U 23208B   26163.88531514  .00008383  00000+0  26777-3 0  9997
2 58661  97.4441 280.7940 0006374 351.2235   8.8895 15.32703090136769
TIANMU-1 21             
1 58662U 23208C   26163.81493029  .00010348  00000+0  30690-3 0  9992
2 58662  97.4499 283.3850 0006292 342.4068  17.6956 15.35003623136895
TIANMU-1 22             
1 58663U 23208D   26163.82448867  .00007763  00000+0  26174-3 0  9993
2 58663  97.4495 280.0418 0003640  19.8989 340.2393 15.30999915136665
TIANMU-1 15             
1 58700U 24004A   26163.83919704  .00006002  00000+0  22932-3 0  9997
2 58700  97.4664 350.0292 0007134  17.4116 342.7366 15.26981733135111
TIANMU-1 16             
1 58701U 24004B   26163.82765014  .00005937  00000+0  22876-3 0  9993
2 58701  97.4611 349.2595 0006274  22.4322 337.7190 15.26706606135112
TIANMU-1 17             
1 58702U 24004C   26163.87864396  .00006007  00000+0  23145-3 0  9991
2 58702  97.4639 349.7938 0005970  28.4274 331.7289 15.26706465135119
TIANMU-1 18             
1 58703U 24004D   26163.85576016  .00005833  00000+0  22314-3 0  9992
2 58703  97.4656 350.0237 0004464  28.9084 331.2401 15.26964208135119
